STARLINK-2708_new
1 18661C 21044Z   21326.15676725  .00000093  00000-0  62097-5 0  3264
2 18661  53.0541 313.0220 0001723  61.4432 348.9597 15.06402437    17
STARLINK-2708_old
1 28661C 21044Z   21325.14097267 -.00001849  00000-0 -12392-3 0  3252
2 28661  53.0543 317.5819 0001668  61.1123 237.5598 15.06395925    11
